NORAD_CAT_ID,OBJECT_NAME,OBJECT_TYPE,EPOCH,MEAN_MOTION,ECCENTRICITY,INCLINATION,RA_OF_ASC_NODE,ARG_OF_PERICENTER,MEAN_ANOMALY,BSTAR,MEAN_MOTION_DOT,MEAN_MOTION_DDOT,TLE_LINE0,TLE_LINE1,TLE_LINE2,SEMIMAJOR_AXIS,PERIOD,APOGEE,PERIGEE,DECAYED
51121.0,STARLINK-3399,PAYLOAD,2022-08-13 17:36:38,15.08832021,0.0001784,53.218,22.7966,56.3799,303.7363,7.5557e-05,9.14e-06,0.0,0 STARLINK-3399,1 51121U 22005T   22225.73378435  .00000914  00000-0  75557-4 0  9999,2 51121  53.2180  22.7966 0001784  56.3799 303.7363 15.08832021 32024,6917.905,95.438,541.004,538.536,0.0
51121.0,STARLINK-3399,PAYLOAD,2022-08-14 06:19:45,15.08826054,0.0001773,53.218,20.4167,55.7307,304.3853,-6.1999e-05,-1.274e-05,0.0,0 STARLINK-3399,1 51121U 22005T   22226.26371589 -.00001274  00000-0 -61999-4 0  9998,2 51121  53.2180  20.4167 0001773  55.7307 304.3853 15.08826054 32107,6917.9230000000025,95.438,541.015,538.561,0.0
51121.0,STARLINK-3399,PAYLOAD,2022-08-14 15:52:03,15.08835261,0.0001844,53.218,18.6335,56.1161,304.0006,-1.8154e-05,-5.77e-06,0.0,0 STARLINK-3399,1 51121U 22005T   22226.66115086 -.00000577  00000-0 -18154-4 0  9990,2 51121  53.2180  18.6335 0001844  56.1161 304.0006 15.08835261 33271,6917.895,95.438,541.036,538.484,0.0
51121.0,STARLINK-3399,PAYLOAD,2022-08-15 04:35:08,15.08842727,0.0001871,53.2181,16.2548,57.0426,303.0746,-7.8575e-06,-4.13e-06,0.0,0 STARLINK-3399,1 51121U 22005T   22227.19106602 -.00000413  00000-0 -78575-5 0  9996,2 51121  53.2181  16.2548 0001871  57.0426 303.0746 15.08842727 32247,6917.871999999999,95.437,541.031,538.443,0.0
51121.0,STARLINK-3399,PAYLOAD,2022-08-15 12:32:03,15.08841253,0.0001776,53.2179,14.7668,58.4014,301.7152,8.4485e-05,1.057e-05,0.0,0 STARLINK-3399,1 51121U 22005T   22227.52226289  .00001057  00000-0  84485-4 0  9996,2 51121  53.2179  14.7668 0001776  58.4014 301.7152 15.08841253 33400,6917.877,95.437,540.97,538.513,0.0
51121.0,STARLINK-3399,PAYLOAD,2022-08-15 18:53:36,15.08836836,0.0001865,53.218,13.578,54.2658,305.8508,7.9281e-06,-1.62e-06,0.0,0 STARLINK-3399,1 51121U 22005T   22227.78722895 -.00000162  00000-0  79281-5 0  9994,2 51121  53.2180  13.5780 0001865  54.2658 305.8508 15.08836836 32333,6917.89,95.438,541.045,538.465,0.0
51121.0,STARLINK-3399,PAYLOAD,2022-08-16 12:22:50,15.08839468,0.0001823,53.2182,10.3071,55.4185,304.6979,6.049e-05,6.75e-06,0.0,0 STARLINK-3399,1 51121U 22005T   22228.51586751  .00000675  00000-0  60490-4 0  9994,2 51121  53.2182  10.3071 0001823  55.4185 304.6979 15.08839468 32440,6917.882,95.438,541.008,538.486,0.0
51121.0,STARLINK-3399,PAYLOAD,2022-08-17 04:16:42,15.08856841,0.0001776,53.2179,7.3337,55.0455,305.0704,-0.00024792,-4.234e-05,0.0,0 STARLINK-3399,1 51121U 22005T   22229.17827024 -.00004234  00000-0 -24792-3 0  9999,2 51121  53.2179   7.3337 0001776  55.0455 305.0704 15.08856841 33659,6917.829000000002,95.436,540.923,538.465,0.0
51121.0,STARLINK-3399,PAYLOAD,2022-08-17 09:02:52,15.08812671,0.0002079,53.2177,6.4419,56.7523,303.3668,0.00027686,4.118e-05,0.0,0 STARLINK-3399,1 51121U 22005T   22229.37699695  .00004118  00000-0  27686-3 0  9996,2 51121  53.2177   6.4419 0002079  56.7523 303.3668 15.08812671 33685,6917.964,95.439,541.2669999999998,538.391,0.0
51121.0,STARLINK-3399,PAYLOAD,2022-08-17 12:13:38,15.08848513,0.0001837,53.2177,5.8466,55.3578,304.7587,-0.00023401,-4.011e-05,0.0,0 STARLINK-3399,1 51121U 22005T   22229.50947246 -.00004011  00000-0 -23401-3 0  9994,2 51121  53.2177   5.8466 0001837  55.3578 304.7587 15.08848513 33708,6917.854,95.437,540.99,538.4490000000002,0.0
51121.0,STARLINK-3399,PAYLOAD,2022-08-18 12:04:25,15.08835394,0.0001664,53.2188,1.3857,47.6945,312.4188,8.039e-05,9.91e-06,0.0,0 STARLINK-3399,1 51121U 22005T   22230.50306814  .00000991  00000-0  80390-4 0  9998,2 51121  53.2188   1.3857 0001664  47.6945 312.4188 15.08835394 32744,6917.894,95.438,540.911,538.6080000000002,0.0
51121.0,STARLINK-3399,PAYLOAD,2022-08-19 03:58:16,15.08832852,0.0001496,53.218,358.4118,57.6301,302.4836,1.3627e-05,-7.1e-07,0.0,0 STARLINK-3399,1 51121U 22005T   22231.16547200 -.00000071  00000-0  13627-4 0  9996,2 51121  53.2180 358.4118 0001496  57.6301 302.4836 15.08832852 33951,6917.901999999999,95.438,540.802,538.732,0.0
51121.0,STARLINK-3399,PAYLOAD,2022-08-19 11:55:12,15.08834552,0.000153,53.2179,356.9251,58.6951,301.4191,2.5146e-05,1.12e-06,0.0,0 STARLINK-3399,1 51121U 22005T   22231.49667159  .00000112  00000-0  25146-4 0  9992,2 51121  53.2179 356.9251 0001530  58.6951 301.4191 15.08834552 32895,6917.897,95.438,540.82,538.7040000000002,0.0
51121.0,STARLINK-3399,PAYLOAD,2022-08-20 11:45:59,15.08837064,0.0001519,53.2183,352.4651,47.6546,312.4575,-9.2847e-05,-1.765e-05,0.0,0 STARLINK-3399,1 51121U 22005T   22232.49027711 -.00001765  00000-0 -92847-4 0  9996,2 51121  53.2183 352.4651 0001519  47.6546 312.4575 15.08837064 34150,6917.889,95.438,540.805,538.7040000000002,0.0
51121.0,STARLINK-3399,PAYLOAD,2022-08-20 13:21:23,15.08837865,0.000161,53.2184,352.1684,44.1083,316.0037,-7.983e-05,-1.558e-05,0.0,0 STARLINK-3399,1 51121U 22005T   22232.55651661 -.00001558  00000-0 -79830-4 0  9997,2 51121  53.2184 352.1684 0001610  44.1083 316.0037 15.08837865 33054,6917.887,95.438,540.866,538.638,0.0
51121.0,STARLINK-3399,PAYLOAD,2022-08-20 14:56:45,15.08840085,0.0001538,53.2185,351.8708,46.4242,313.6877,-6.2038e-05,-1.275e-05,0.0,0 STARLINK-3399,1 51121U 22005T   22232.62275442 -.00001275  00000-0 -62038-4 0  9992,2 51121  53.2185 351.8708 0001538  46.4242 313.6877 15.08840085 33063,6917.88,95.438,540.809,538.681,0.0
51121.0,STARLINK-3399,PAYLOAD,2022-08-21 13:12:10,15.08830734,0.0001568,53.2185,347.7079,40.1309,319.9799,-2.1491e-05,-6.3e-06,0.0,0 STARLINK-3399,1 51121U 22005T   22233.55012029 -.00000630  00000-0 -21491-4 0  9997,2 51121  53.2185 347.7079 0001568  40.1309 319.9799 15.08830734 34317,6917.909000000002,95.438,540.8580000000002,538.689,0.0
51121.0,STARLINK-3399,PAYLOAD,2022-08-21 14:47:33,15.08830683,0.0001613,53.2186,347.4108,38.5036,321.6071,-2.104e-05,-6.23e-06,0.0,0 STARLINK-3399,1 51121U 22005T   22233.61636076 -.00000623  00000-0 -21040-4 0  9990,2 51121  53.2186 347.4108 0001613  38.5036 321.6071 15.08830683 33211,6917.909000000002,95.438,540.89,538.658,0.0
51121.0,STARLINK-3399,PAYLOAD,2022-08-22 08:16:47,15.08833536,0.0001629999999999,53.2185,344.1401,39.5914,320.5197,4.1822e-05,3.78e-06,0.0,0 STARLINK-3399,1 51121U 22005T   22234.34499986  .00000378  00000-0  41822-4 0  9993,2 51121  53.2185 344.1401 0001630  39.5914 320.5197 15.08833536 33324,6917.9,95.438,540.893,538.638,0.0
51121.0,STARLINK-3399,PAYLOAD,2022-08-22 16:13:43,15.08840294,0.0001588,53.2184,342.6532,43.0137,317.0979,4.8816e-05,4.89e-06,0.0,0 STARLINK-3399,1 51121U 22005T   22234.67619568  .00000489  00000-0  48816-4 0  9992,2 51121  53.2184 342.6532 0001588  43.0137 317.0979 15.08840294 33373,6917.879,95.438,540.8430000000002,538.646,0.0
51121.0,STARLINK-3399,PAYLOAD,2022-08-23 11:18:21,15.08833362,0.0001792,53.2194,339.0872,45.3613,314.7525,-0.00011673,-2.145e-05,0.0,0 STARLINK-3399,1 51121U 22005T   22235.47108642 -.00002145  00000-0 -11673-3 0  9990,2 51121  53.2194 339.0872 0001792  45.3613 314.7525 15.08833362 34608,6917.901,95.438,541.005,538.526,0.0
51121.0,STARLINK-3399,PAYLOAD,2022-08-23 16:04:31,15.08798955,0.0001468,53.2193,338.1952,54.8997,305.2132,0.00033613,5.06e-05,0.0,0 STARLINK-3399,1 51121U 22005T   22235.66981169  .00005060  00000-0  33613-3 0  9999,2 51121  53.2193 338.1952 0001468  54.8997 305.2132 15.08798955 33523,6918.005999999999,95.44,540.886,538.855,0.0
51121.0,STARLINK-3399,PAYLOAD,2022-08-24 00:01:27,15.08829758,0.0002414,53.2207,336.7075,47.216,312.9034,4.6563e-06,-2.14e-06,0.0,0 STARLINK-3399,1 51121U 22005T   22236.00100952 -.00000214  00000-0  46563-5 0  9998,2 51121  53.2207 336.7075 0002414  47.2160 312.9034 15.08829758 34689,6917.9119999999975,95.438,541.447,538.107,0.0
51121.0,STARLINK-3399,PAYLOAD,2022-08-24 11:09:08,15.08837356,0.0001792,53.2188,334.6256,48.2381,311.8764,-2.0351e-05,-6.12e-06,0.0,0 STARLINK-3399,1 51121U 22005T   22236.46468438 -.00000612  00000-0 -20351-4 0  9993,2 51121  53.2188 334.6256 0001792  48.2381 311.8764 15.08837356 33645,6917.888000000001,95.438,540.993,538.514,0.0
51121.0,STARLINK-3399,PAYLOAD,2022-08-24 12:44:31,15.08838374,0.0001756,53.2188,334.3282,46.1058,314.0079,-1.5475e-05,-5.34e-06,0.0,0 STARLINK-3399,1 51121U 22005T   22236.53092356 -.00000534  00000-0 -15475-4 0  9997,2 51121  53.2188 334.3282 0001756  46.1058 314.0079 15.08838374 33655,6917.885,95.438,540.965,538.536,0.0
51121.0,STARLINK-3399,PAYLOAD,2022-08-25 10:59:55,15.08837936,0.0001764999999999,53.2182,330.1644,48.395,311.7193,9.8697e-05,1.283e-05,0.0,0 STARLINK-3399,1 51121U 22005T   22237.45827940  .00001283  00000-0  98697-4 0  9991,2 51121  53.2182 330.1644 0001765  48.3950 311.7193 15.08837936 33799,6917.887,95.438,540.9730000000002,538.531,0.0
51121.0,STARLINK-3399,PAYLOAD,2022-08-25 15:46:04,15.08840856,0.0001758,53.218,329.2721,48.254,311.8603,9.2529e-05,1.185e-05,0.0,0 STARLINK-3399,1 51121U 22005T   22237.65699778  .00001185  00000-0  92529-4 0  9998,2 51121  53.2180 329.2721 0001758  48.2540 311.8603 15.08840856 34937,6917.878000000002,95.438,540.9590000000002,538.5269999999998,0.0
51121.0,STARLINK-3399,PAYLOAD,2022-08-26 10:50:41,15.0884908,0.000177,53.2179,325.7036,48.3043,311.81,0.00010201,1.336e-05,0.0,0 STARLINK-3399,1 51121U 22005T   22238.45186914  .00001336  00000-0  10201-3 0  9994,2 51121  53.2179 325.7036 0001770  48.3043 311.8100 15.08849080 33948,6917.853,95.437,540.942,538.493,0.0
51121.0,STARLINK-3399,PAYLOAD,2022-08-27 10:41:29,15.08842971,0.0001831,53.2178,321.2431,51.0573,309.0583,-2.7134e-05,-7.200000000000001e-06,0.0,0 STARLINK-3399,1 51121U 22005T   22239.44547644 -.00000720  00000-0 -27134-4 0  9997,2 51121  53.2178 321.2431 0001831  51.0573 309.0583 15.08842971 34097,6917.871,95.437,541.003,538.47,0.0
